ONEWEB-0578             
1 56067U 23043X   26185.13432456 -.00000015  00000+0 -67689-4 0  9993
2 56067  87.9243 240.6008 0002219  90.1012 270.0377 13.21825425160473
ONEWEB-0579             
1 56068U 23043Y   26185.12590117  .00000027  00000+0  33881-4 0  9990
2 56068  87.9245 240.6002 0001948 104.6986 255.4364 13.21827479160484
ONEWEB-0581             
1 56069U 23043Z   26185.09758981  .00000113  00000+0  26139-3 0  9995
2 56069  87.9086 225.4261 0001643  82.4215 277.7103 13.16594738161185
ONEWEB-0609             
1 56070U 23043AA  26184.91398085 -.00000122  00000+0 -35813-3 0  9993
2 56070  87.8995 255.8790 0002137  99.5836 260.5536 13.15546845158637
ONEWEB-0613             
1 56071U 23043AB  26185.13978417 -.00000099  00000+0 -29657-3 0  9994
2 56071  87.8992 255.8464 0002054 106.4916 253.6440 13.15547938158662
ONEWEB-0630             
1 56072U 23043AC  26184.90686670 -.00000014  00000+0 -72482-4 0  9998
2 56072  87.8993 255.8654 0001981 106.0918 254.0430 13.15548534158624
ONEWEB-0632             
1 56073U 23043AD  26184.90211094  .00000057  00000+0  11623-3 0  9997
2 56073  87.8997 255.8833 0001868  96.9662 263.1681 13.15547932158625
ONEWEB-0633             
1 56074U 23043AE  26184.89577653  .00000035  00000+0  58386-4 0  9996
2 56074  87.9005 255.8615 0002209 109.6933 250.4436 13.15547745158605
ONEWEB-0634             
1 56075U 23043AF  26185.18574372  .00000113  00000+0  26634-3 0  9992
2 56075  87.8991 255.8431 0002329  95.7992 264.3404 13.15547437158638
ONEWEB-0635             
1 56076U 23043AG  26185.18098722  .00000138  00000+0  33264-3 0  9997
2 56076  87.9001 255.8078 0001822  94.9470 265.1869 13.15547518158665
ONEWEB-0636             
1 56077U 23043AH  26184.94488348  .00000096  00000+0  22128-3 0  9998
2 56077  87.9000 255.8607 0001895  95.2860 264.8487 13.15547095158617
ONEWEB-0637             
1 56078U 23043AJ  26184.93855336  .00001180  00000+0  31016-2 0  9993
2 56078  87.8996 255.8776 0001953  92.9527 267.1827 13.15540714158634
ONEWEB-0647             
1 56079U 23043AK  26185.16197545  .00000032  00000+0  51342-4 0  9992
2 56079  87.8993 255.8454 0001926 100.4788 259.6560 13.15548657158655
ONEWEB-0651             
1 56080U 23043AL  26185.23327636  .00000068  00000+0  14704-3 0  9997
2 56080  87.8992 255.8245 0001934  92.6044 267.5307 13.15547971159869
ONEWEB-0718             
1 56081U 23043AM  26185.15246969 -.00000065  00000+0 -20731-3 0  9994
2 56081  87.8993 255.8214 0002551  99.5060 260.6358 13.15548827158665
ONEWEB-0561             
1 56710U 23068A   26185.16717456  .00000043  00000+0  74200-4 0  9990
2 56710  87.9203 271.0601 0001615 100.4437 259.6879 13.20774211151741
ONEWEB-0668             
1 56711U 23068B   26185.07225520  .00000068  00000+0  14545-3 0  9999
2 56711  87.9083 225.4191 0002481  87.5193 272.6222 13.16594400154005
ONEWEB-0676             
1 56712U 23068C   26185.08017483  .00000079  00000+0  17200-3 0  9991
2 56712  87.9090 225.4244 0001862  87.2169 272.9175 13.16593661153923
ONEWEB-0677             
1 56713U 23068D   26185.00390294 -.00000037  00000+0 -12383-3 0  9991
2 56713  87.9194 271.0840 0002059  88.0943 272.0426 13.20771709152022
ONEWEB-0678             
1 56714U 23068E   26184.89260295  .00000099  00000+0  22902-3 0  9999
2 56714  87.9003 255.8666 0001899 105.9137 254.2202 13.15547590151489
ONEWEB-0679             
1 56715U 23068F   26185.11500006  .00000071  00000+0  15138-3 0  9996
2 56715  87.9085 225.4079 0002244  80.0435 280.0949 13.16594198153956
ONEWEB-0680             
1 56716U 23068G   26185.12757798  .00000008  00000+0 -11914-4 0  9990
2 56716  87.9249 240.6015 0002448  86.9416 273.1998 13.21825229153335
ONEWEB-0681             
1 56717U 23068H   26185.10822817  .00000122  00000+0  26395-3 0  9998
2 56717  87.9247 240.6060 0001316  76.8826 283.2455 13.21824229153328
ONEWEB-0682             
1 56718U 23068J   26185.14454601 -.00000065  00000+0 -20701-3 0  9998
2 56718  87.9002 255.8168 0002407  88.8443 271.2963 13.15547927151683
ONEWEB-0683             
1 56719U 23068K   26185.16831144  .00000059  00000+0  12144-3 0  9995
2 56719  87.9001 255.8123 0002278  96.0024 264.1366 13.15547755151650
ONEWEB-0684             
1 56720U 23068L   26184.94806687  .00000171  00000+0  42004-3 0  9999
2 56720  87.8998 255.8458 0002522 131.7200 228.4146 13.15549111151457
ONEWEB-0686             
1 56721U 23068M   26184.84743022 -.00000079  00000+0 -24011-3 0  9999
2 56721  87.9075 225.4831 0002403  98.0637 262.0767 13.16592810153900
ONEWEB-0694             
1 56722U 23068N   26184.85376128 -.00000014  00000+0 -71299-4 0  9990
2 56722  87.9094 225.4496 0002464  88.2221 271.9192 13.16592157153967
ONEWEB-0696             
1 56723U 23068P   26184.90528229  .00000055  00000+0  11111-3 0  9997
2 56723  87.8991 255.8908 0001765 111.2090 248.9229 13.15549339151564
ONEWEB-0703             
1 56724U 23068Q   26185.14294936 -.00000039  00000+0 -13663-3 0  9998
2 56724  87.8995 255.8252 0001333 118.0056 242.1209 13.15547777151488
