OBJECT_NAME,OBJECT_ID,EPOCH,MEAN_MOTION,ECCENTRICITY,INCLINATION,RA_OF_ASC_NODE,ARG_OF_PERICENTER,MEAN_ANOMALY,EPHEMERIS_TYPE,CLASSIFICATION_TYPE,NORAD_CAT_ID,ELEMENT_SET_NO,REV_AT_EPOCH,BSTAR,MEAN_MOTION_DOT,MEAN_MOTION_DDOT
ONEWEB-0578,2023-043X,2026-07-04T03:13:25.641984,13.21825425,.00022199,87.9243,240.6008,90.1012,270.0377,0,U,56067,999,16047,-.67689091E-4,-.15E-6,0
ONEWEB-0579,2023-043Y,2026-07-04T03:01:17.861088,13.21827479,.00019486,87.9245,240.6002,104.6986,255.4364,0,U,56068,999,16048,.33881201E-4,.27E-6,0
ONEWEB-0581,2023-043Z,2026-07-04T02:20:31.759584,13.16594738,.00016438,87.9086,225.4261,82.4215,277.7103,0,U,56069,999,16118,.26138714E-3,.113E-5,0
ONEWEB-0609,2023-043AA,2026-07-03T21:56:07.945440,13.15546845,.00021374,87.8995,255.8790,99.5836,260.5536,0,U,56070,999,15863,-.35813244E-3,-.122E-5,0
ONEWEB-0613,2023-043AB,2026-07-04T03:21:17.352288,13.15547938,.00020545,87.8992,255.8464,106.4916,253.6440,0,U,56071,999,15866,-.29657321E-3,-.99E-6,0
ONEWEB-0630,2023-043AC,2026-07-03T21:45:53.282880,13.15548534,.00019819,87.8993,255.8654,106.0918,254.0430,0,U,56072,999,15862,-.72481797E-4,-.14E-6,0
ONEWEB-0632,2023-043AD,2026-07-03T21:39:02.385216,13.15547932,.00018681,87.8997,255.8833,96.9662,263.1681,0,U,56073,999,15862,.11622515E-3,.57E-6,0
ONEWEB-0633,2023-043AE,2026-07-03T21:29:55.092192,13.15547745,.00022092,87.9005,255.8615,109.6933,250.4436,0,U,56074,999,15860,.58385886E-4,.35E-6,0
ONEWEB-0634,2023-043AF,2026-07-04T04:27:28.257408,13.15547437,.00023299,87.8991,255.8431,95.7992,264.3404,0,U,56075,999,15863,.26633757E-3,.113E-5,0
ONEWEB-0635,2023-043AG,2026-07-04T04:20:37.295808,13.15547518,.0001822,87.9001,255.8078,94.9470,265.1869,0,U,56076,999,15866,.33264129E-3,.138E-5,0
ONEWEB-0636,2023-043AH,2026-07-03T22:40:37.932672,13.15547095,.00018958,87.9000,255.8607,95.2860,264.8487,0,U,56077,999,15861,.22128214E-3,.96E-6,0
ONEWEB-0637,2023-043AJ,2026-07-03T22:31:31.010304,13.15540714,.00019531,87.8996,255.8776,92.9527,267.1827,0,U,56078,999,15863,.31016133E-2,.118E-4,0
ONEWEB-0647,2023-043AK,2026-07-04T03:53:14.678880,13.15548657,.00019264,87.8993,255.8454,100.4788,259.6560,0,U,56079,999,15865,.51342374E-4,.32E-6,0
ONEWEB-0651,2023-043AL,2026-07-04T05:35:55.077504,13.15547971,.00019345,87.8992,255.8245,92.6044,267.5307,0,U,56080,999,15986,.14704295E-3,.68E-6,0
ONEWEB-0718,2023-043AM,2026-07-04T03:39:33.381216,13.15548827,.00025519,87.8993,255.8214,99.5060,260.6358,0,U,56081,999,15866,-.20731002E-3,-.65E-6,0
ONEWEB-0561,2023-068A,2026-07-04T04:00:43.881984,13.20774211,.00016153,87.9203,271.0601,100.4437,259.6879,0,U,56710,999,15174,.74200013E-4,.43E-6,0
ONEWEB-0668,2023-068B,2026-07-04T01:44:02.849280,13.16594400,.00024814,87.9083,225.4191,87.5193,272.6222,0,U,56711,999,15400,.14544727E-3,.68E-6,0
ONEWEB-0676,2023-068C,2026-07-04T01:55:27.105312,13.16593661,.00018627,87.9090,225.4244,87.2169,272.9175,0,U,56712,999,15392,.17199546E-3,.79E-6,0
ONEWEB-0677,2023-068D,2026-07-04T00:05:37.214016,13.20771709,.00020597,87.9194,271.0840,88.0943,272.0426,0,U,56713,999,15202,-.12383199E-3,-.37E-6,0
ONEWEB-0678,2023-068E,2026-07-03T21:25:20.894880,13.15547590,.00018992,87.9003,255.8666,105.9137,254.2202,0,U,56714,999,15148,.22902201E-3,.99E-6,0
ONEWEB-0679,2023-068F,2026-07-04T02:45:36.005184,13.16594198,.00022446,87.9085,225.4079,80.0435,280.0949,0,U,56715,999,15395,.1513755E-3,.71E-6,0
ONEWEB-0680,2023-068G,2026-07-04T03:03:42.737472,13.21825229,.00024484,87.9249,240.6015,86.9416,273.1998,0,U,56716,999,15333,-.11913852E-4,.8E-7,0
ONEWEB-0681,2023-068H,2026-07-04T02:35:50.913888,13.21824229,.00013169,87.9247,240.6060,76.8826,283.2455,0,U,56717,999,15332,.26395282E-3,.122E-5,0
ONEWEB-0682,2023-068J,2026-07-04T03:28:08.775264,13.15547927,.00024079,87.9002,255.8168,88.8443,271.2963,0,U,56718,999,15168,-.20700694E-3,-.65E-6,0
ONEWEB-0683,2023-068K,2026-07-04T04:02:22.108416,13.15547755,.00022788,87.9001,255.8123,96.0024,264.1366,0,U,56719,999,15165,.12144407E-3,.59E-6,0
ONEWEB-0684,2023-068L,2026-07-03T22:45:12.977568,13.15549111,.0002522,87.8998,255.8458,131.7200,228.4146,0,U,56720,999,15145,.42004124E-3,.171E-5,0
ONEWEB-0686,2023-068M,2026-07-03T20:20:17.971008,13.16592810,.00024033,87.9075,225.4831,98.0637,262.0767,0,U,56721,999,15390,-.24010804E-3,-.79E-6,0
ONEWEB-0694,2023-068N,2026-07-03T20:29:24.974592,13.16592157,.00024646,87.9094,225.4496,88.2221,271.9192,0,U,56722,999,15396,-.71299214E-4,-.14E-6,0
ONEWEB-0696,2023-068P,2026-07-03T21:43:36.389856,13.15549339,.00017652,87.8991,255.8908,111.2090,248.9229,0,U,56723,999,15156,.11111331E-3,.55E-6,0
ONEWEB-0703,2023-068Q,2026-07-04T03:25:50.824704,13.15547777,.00013333,87.8995,255.8252,118.0056,242.1209,0,U,56724,999,15148,-.13663364E-3,-.39E-6,0
